OPTICUBE 04             
1 41851U 16067D   19099.82140006  .00000641  00000-0  61284-4 0  9994
2 41851  97.9131 196.6069 0007225 254.5013 105.5410 14.96782283131465
AEROCUBE 8D             
1 41852U 16067E   19100.22067338  .00000805  00000-0  75837-4 0  9999
2 41852  97.9143 196.8365 0008030 253.0239 107.0102 14.96674142131503
AEROCUBE 8C             
1 41853U 16067F   19099.90761484 -.00000236  00000-0 -15353-4 0  9992
2 41853  97.9140 196.4619 0008636 257.6659 102.3596 14.96637192131450
PROMETHEUS 2-1          
1 41854U 16067G   19100.21882045  .00001081  00000-0  99616-4 0  9998
2 41854  97.9149 196.8807 0008698 253.5159 106.5106 14.96831560131505
PROMETHEUS 2-3          
1 41855U 16067H   19100.22138134  .00001038  00000-0  95821-4 0  9999
2 41855  97.9152 196.8964 0008837 254.3117 105.7129 14.96836768131503
INS-1B                  
1 41954U 17008G   19099.75926905  .00001612  00000-0  69931-4 0  9992
2 41954  97.4064 165.7013 0010194  40.5646 319.6349 15.23756117119158
BGUSAT                  
1 41999U 17008BD  19099.90556501  .00003093  00000-0  12374-3 0  9992
2 41999  97.4122 167.9261 0009430  55.0465 305.1658 15.25800582118657
DIDO-2                  
1 42000U 17008BE  19099.74728180  .00001198  00000-0  52739-4 0  9996
2 42000  97.4077 166.2263 0009932  57.3913 302.8281 15.23759525118557
PEASSS                  
1 42015U 17008BV  19099.75441705  .00001467  00000-0  62199-4 0  9998
2 42015  97.4082 167.0828 0007898  64.2176 295.9876 15.24687325119093
AL-FARABI 1             
1 42016U 17008BW  19100.83091222  .00002356  00000-0  96445-4 0  9995
2 42016  97.4089 168.6113 0007678  61.2885 298.9124 15.25280754119405
NAYIF-1 (EO-88)         
1 42017U 17008BX  19100.81987523  .00002411  00000-0  98535-4 0  9996
2 42017  97.4086 168.6098 0007659  61.5212 298.6796 15.25311505119424
PHOENIX                 
1 42706U 98067LP  19100.55456679  .00322051  53205-4  71533-3 0  9991
2 42706  51.6223 260.1077 0006576 291.0115  69.0190 15.97353577108866
ALTAIR PATHFINDER       
1 42711U 98067LS  19100.14109945  .00046629  00000-0  29725-3 0  9994
2 42711  51.6350 289.2772 0003812 225.6486 134.4202 15.75910637108101
SHARC                   
1 42712U 98067LT  19100.50476012  .00397340  75720-4  89022-3 0  9997
2 42712  51.6256 277.3168 0007150 278.0135  82.0062 15.97158676108536
ZA-AEROSAT              
1 42713U 98067LU  19100.47342793  .00181620  23418-4  54590-3 0  9993
2 42713  51.6293 267.2283 0004993 275.0361  85.0076 15.91883215108428
CSUNSAT1                
1 42715U 98067LW  19100.43899259  .00328204  56166-4  64778-3 0  9991
2 42715  51.6250 262.3949 0007184 284.5934  75.4279 15.99442893108489
NJUST-1                 
1 42722U 98067MB  19100.00946848  .00085793  00000-0  34584-3 0  9996
2 42722  51.6342 276.0780 0004802 267.7704 183.6954 15.85635727107336
NSIGHT                  
1 42726U 98067MF  19099.82183013  .00025705  00000-0  22668-3 0  9991
2 42726  51.6372 305.3941 0004718 257.9107 102.1361 15.68526889106844
SNUSAT-1B               
1 42727U 98067MG  19089.91797841  .06519165  12339-4  59073-3 0  9997
2 42727  51.6087 308.8243 0009316 268.9251  91.0707 16.37980460105869
BEEAGLESAT              
1 42736U 98067MR  19100.52298655  .00475432  11432-3  72812-3 0  9997
2 42736  51.6236 259.8405 0009094 298.5052  61.5043 16.03695279107413
UCLSAT                  
1 42765U 17036A   19100.86305185  .00001799  00000-0  80339-4 0  9991
2 42765  97.3588 160.3218 0013237 109.6387 250.6279 15.22566288 99999
LITUANICASAT-2          
1 42768U 17036D   19100.38162450  .00003277  00000-0  14390-3 0  9993
2 42768  97.3616 159.4214 0017069 103.3724 256.9417 15.22500215 99768
AALTO-1                 
1 42775U 17036L   19099.74225643  .00001057  00000-0  50283-4 0  9998
2 42775  97.3577 158.1306 0015765 104.5012 255.7974 15.21213445 99573
URSA MAIOR              
1 42776U 17036M   19099.90619831  .00001136  00000-0  53661-4 0  9994
2 42776  97.3586 158.4165 0015592 104.0113 256.2857 15.21337018 99608
COMPASS 2               
1 42777U 17036N   19100.47120501  .00002597  00000-0  11430-3 0  9990
2 42777  97.3615 159.9580 0014419 103.9066 256.3775 15.22653277 99734
DIAMOND RED             
1 42783U 17036U   19100.16111387  .00001298  00000-0  59686-4 0  9998
2 42783  97.3590 159.2916 0013892 112.6469 247.6238 15.22046105 99673
PEGASUS                 
1 42784U 17036V   19100.15314926  .00001482  00000-0  67152-4 0  9994
2 42784  97.3593 159.4700 0013757 112.3510 247.9186 15.22320174 99681
DIAMOND GREEN           
1 42785U 17036W   19099.89696502  .00001331  00000-0  61124-4 0  9992
2 42785  97.3593 159.0548 0013783 113.9657 246.3024 15.22044764 99701
DIAMOND BLUE            
1 42786U 17036X   19100.15894371  .00001311  00000-0  60229-4 0  9992
2 42786  97.3592 159.3103 0013617 113.3218 246.9452 15.22045028 99664
NUDTSAT                 
1 42787U 17036Y   19100.12740121  .00001602  00000-0  70591-4 0  9999
2 42787  97.3633 160.0116 0012153 104.0438 256.2164 15.23190152 99551
SUCHAI                  
1 42788U 17036Z   19099.91562662  .00001786  00000-0  79461-4 0  9994
2 42788  97.3597 159.4902 0013365 112.4983 247.7670 15.22702290 99738
SKCUBE                  
1 42789U 17036AA  19099.92711675  .00001646  00000-0  73663-4 0  9999
2 42789  97.3594 159.4577 0013216 112.4322 247.8316 15.22615991 99656
VZLUSAT-1               
1 42790U 17036AB  19099.91722388  .00002413  00000-0  10476-3 0  9998
2 42790  97.3601 159.8090 0012868 112.1331 248.1273 15.23203275 99677
ROBUSTA-1B              
1 42792U 17036AD  19099.73403907  .00001633  00000-0  72772-4 0  9994
2 42792  97.3594 159.3983 0012784 113.5942 246.6639 15.22778463 99647
CICERO 6                
1 42793U 17036AE  19100.17116570  .00001193  00000-0  54490-4 0  9991
2 42793  97.3579 159.6672 0011992 113.3488 246.9012 15.22436205 99779
D-SAT                   
1 42794U 17036AF  19100.08317492  .00000379  00000-0  38257-4 0  9996
2 42794  97.5485 147.8138 0126980  14.3784 346.0994 14.91055044 97960
TOKI                    
1 42820U 98067MU  19100.46234292  .00358260  65537-4  68022-3 0  9994
2 42820  51.6250 265.5179 0006909 282.6071  77.4166 16.00110751100792
MAZAALAI (NUMSAT-1)     
1 42822U 98067MW  19100.45650065  .00287317  44163-4  66412-3 0  9992
2 42822  51.6273 267.8042 0006349 280.2930  79.7362 15.96656909100741
BRAC ONNESHA            
1 42823U 98067MX  19100.44236613  .00324048  54386-4  67714-3 0  9998
2 42823  51.6240 266.9193 0007375 278.8621  81.1553 15.98434169100757
NIGERIAEDUSAT-1         
1 42824U 98067MY  19100.45035779  .00269046  39779-4  64531-3 0  9999
2 42824  51.6276 268.5835 0006925 276.8432  83.1788 15.95988613100720
CORVUS BC2              
1 42846U 17042X   19100.19707722  .00000340  00000-0  38895-4 0  9998
2 42846  97.5735 356.9396 0008189 290.7267  69.3074 14.91943879 94650
CORVUS BC1              
1 42847U 17042Y   19100.22203198  .00000032  00000-0  84396-5 0  9997
2 42847  97.5735 357.0584 0007781 290.1817  69.8565 14.92043711 94651
SILU-1 (SILKROAD 1)     
1 42903U 17021F   19100.23204088  .02436429  89480-5  50117-3 0  9998
2 42903  42.7609 296.2424 0011156 293.9683  66.9737 16.29954320 97039
MIRATA                  
1 43015U 17073C   19099.92872711  .00002513  00000-0  20033-3 0  9998
2 43015  97.7189  23.8629 0256790  25.4177 335.9410 14.78818360 74980
MAKERSAT 0              
1 43016U 17073D   19100.27050310  .00001698  00000-0  13683-3 0  9999
2 43016  97.7223  24.3839 0258718  24.5559 336.7720 14.78620618 75021
ASTERIA                 
1 43020U 98067NH  19099.80942156  .00029459  00000-0  26758-3 0  9992
2 43020  51.6423 315.9673 0002421 207.0745 153.0126 15.67727175 78887
DELLINGR (RBLE)         
1 43021U 98067NJ  19099.87219969  .00012303  00000-0  14443-3 0  9997
2 43021  51.6389 324.5461 0002523 183.9932 176.1042 15.61907545 78779
AEROCUBE 7B (OCSD B)    
1 43042U 17071F   19100.89165513  .00005371  00000-0  13911-3 0  9992
2 43042  51.6391  29.1755 0003749 264.5638  95.4920 15.40701421 75473
AEROCUBE 7C (OCSD C)    
1 43043U 17071G   19100.24314267  .00004802  00000-0  12530-3 0  9998
2 43043  51.6394  32.3579 0004110 266.8380  93.2135 15.40733604 75347
CHEFSAT                 
1 43044U 17071H   19099.30895247  .00009486  00000-0  22075-3 0  9993
2 43044  51.6399  32.9623 0003775 261.0437  99.0122 15.42992838 75253
ASGARDIA 1              
1 43049U 17071N   19100.20083656  .00005278  00000-0  13616-3 0  9999
2 43049  51.6402  32.0974 0001705 294.1887  65.8920 15.40858594 75334
ISARA                   
1 43050U 17071P   19099.88571399  .00009479  00000-0  22377-3 0  9999
2 43050  51.6391  30.7807 0001420 287.2630  72.8201 15.42561470 75332
PROPCUBE 2 (FAUNA)      
1 43052U 17071R   19100.21841421  .00006368  00000-0  16095-3 0  9991
2 43052  51.6399  31.4818 0001596 287.9513  72.1298 15.41104458 75341
CORVUS BC3              
1 43118U 18004H   19100.41195427  .00001122  00000-0  51129-4 0  9992
2 43118  97.4928 167.9784 0011796 129.4243 230.8039 15.22723086 68936
MICROMAS-2A             
1 43131U 18004W   19099.94762090  .00002680  00000-0  11404-3 0  9999
2 43131  97.4945 168.0526 0010863 132.6340 227.5814 15.23843454 68896
CICERO 7                
1 43143U 18004AJ  19099.19025601  .00002137  00000-0  91109-4 0  9997
2 43143  97.4934 167.5049 0008725 141.6077 218.5782 15.24022707 68796
GOMX-4B                 
1 43196U 18015E   19100.56110021  .00000750  00000-0  33929-4 0  9997
2 43196  97.3803 229.1296 0018535 186.1959 173.9051 15.23867768 65816
GOMX-4A                 
1 43197U 18015F   19100.69773921  .00000595  00000-0  27419-4 0  9990
2 43197  97.3804 229.2838 0019147 185.5526 281.3002 15.23957016 65843
1KUNS-PF                
1 43466U 98067NP  19099.92724317  .00025663  00000-0  27584-3 0  9997
2 43466  51.6383 327.8990 0001352 165.3558 194.7476 15.63577395 51996
